NORAD_CAT_ID,OBJECT_NAME,OBJECT_TYPE,EPOCH,MEAN_MOTION,ECCENTRICITY,INCLINATION,RA_OF_ASC_NODE,ARG_OF_PERICENTER,MEAN_ANOMALY,BSTAR,MEAN_MOTION_DOT,MEAN_MOTION_DDOT,TLE_LINE0,TLE_LINE1,TLE_LINE2,SEMIMAJOR_AXIS,PERIOD,APOGEE,PERIGEE,DECAYED
52552.0,STARLINK-3966,PAYLOAD,2022-09-24 15:34:37,15.08837065,0.0001689,53.2201,34.6326,42.7696,317.3428,2.716e-05,1.44e-06,0.0,0 STARLINK-3966,1 52552U 22051V   22267.64904012  .00000144  00000-0  27160-4 0  9993,2 52552  53.2201  34.6326 0001689  42.7696 317.3428 15.08837065 20920,6917.889,95.438,540.923,538.586,0.0
52552.0,STARLINK-3966,PAYLOAD,2022-09-25 04:17:41,15.08843926,0.0001746,53.2206,32.2533,40.1606,319.9515,0.00013743,1.9e-05,0.0,0 STARLINK-3966,1 52552U 22051V   22268.17895207  .00001900  00000-0  13743-3 0  9999,2 52552  53.2206  32.2533 0001746  40.1606 319.9515 15.08843926 21071,6917.868,95.437,540.941,538.526,0.0
52552.0,STARLINK-3966,PAYLOAD,2022-09-25 12:14:37,15.08845639,0.0001733999999999,53.2207,30.7667,43.5402,316.5727,0.00013741,1.9e-05,0.0,0 STARLINK-3966,1 52552U 22051V   22268.51015075  .00001900  00000-0  13741-3 0  9992,2 52552  53.2207  30.7667 0001734  43.5402 316.5727 15.08845639 21050,6917.863,95.437,540.928,538.529,0.0
52552.0,STARLINK-3966,PAYLOAD,2022-09-25 15:25:23,15.08843104,0.0001646,53.2209,30.1721,47.7796,312.3335,0.00011726,1.579e-05,0.0,0 STARLINK-3966,1 52552U 22051V   22268.64263301  .00001579  00000-0  11726-3 0  9996,2 52552  53.2209  30.1721 0001646  47.7796 312.3335 15.08843104 21077,6917.871,95.437,540.875,538.597,0.0
52552.0,STARLINK-3966,PAYLOAD,2022-09-26 02:33:05,15.08841863,0.0001847,53.2218,28.0925,48.3627,311.7523,0.00012276,1.666e-05,0.0,0 STARLINK-3966,1 52552U 22051V   22269.10631423  .00001666  00000-0  12276-3 0  9990,2 52552  53.2218  28.0925 0001847  48.3627 311.7523 15.08841863 21210,6917.875,95.437,541.0169999999998,538.462,0.0
52552.0,STARLINK-3966,PAYLOAD,2022-09-26 10:30:02,15.08825218,0.0001720999999999,53.2207,26.6038,45.9402,314.1732,-4.4309e-05,-9.93e-06,0.0,0 STARLINK-3966,1 52552U 22051V   22269.43753024 -.00000993  00000-0 -44309-4 0  9995,2 52552  53.2207  26.6038 0001721  45.9402 314.1732 15.08825218 21194,6917.926,95.438,540.981,538.6,0.0
52552.0,STARLINK-3966,PAYLOAD,2022-09-27 11:56:12,15.08840845,0.0001651,53.2207,21.8452,52.3515,307.7627,1.3320999999999997e-05,-7.6e-07,0.0,0 STARLINK-3966,1 52552U 22051V   22270.49736230 -.00000076  00000-0  13321-4 0  9994,2 52552  53.2207  21.8452 0001651  52.3515 307.7627 15.08840845 21420,6917.878000000002,95.438,540.885,538.601,0.0
52552.0,STARLINK-3966,PAYLOAD,2022-09-28 00:39:16,15.08854435,0.0001983,53.2223,19.4704,45.8256,314.2899,0.00018643,2.681e-05,0.0,0 STARLINK-3966,1 52552U 22051V   22271.02727059  .00002681  00000-0  18643-3 0  9997,2 52552  53.2223  19.4704 0001983  45.8256 314.2899 15.08854435 21501,6917.8359999999975,95.437,541.073,538.3290000000002,0.0
52552.0,STARLINK-3966,PAYLOAD,2022-09-28 13:22:21,15.08850436,0.0001771999999999,53.2207,17.0874,54.8669,305.2489,0.00029639,4.433e-05,0.0,0 STARLINK-3966,1 52552U 22051V   22271.55718811  .00004433  00000-0  29639-3 0  9995,2 52552  53.2207  17.0874 0001772  54.8669 305.2489 15.08850436 21512,6917.848000000001,95.437,540.939,538.488,0.0
52552.0,STARLINK-3966,PAYLOAD,2022-09-28 16:33:07,15.08854502,0.0001849,53.2199,16.4926,57.8451,302.272,0.00035907,5.433e-05,0.0,0 STARLINK-3966,1 52552U 22051V   22271.68967059  .00005433  00000-0  35907-3 0  9995,2 52552  53.2199  16.4926 0001849  57.8451 302.2720 15.08854502 21535,6917.8359999999975,95.437,540.98,538.422,0.0
52552.0,STARLINK-3966,PAYLOAD,2022-09-29 02:05:26,15.08845966,0.0001899,53.2182,14.7081,60.2841,299.834,0.00020774,3.02e-05,0.0,0 STARLINK-3966,1 52552U 22051V   22272.08711204  .00003020  00000-0  20774-3 0  9995,2 52552  53.2182  14.7081 0001899  60.2841 299.8340 15.08845966 21663,6917.861999999999,95.437,541.0409999999998,538.413,0.0
52552.0,STARLINK-3966,PAYLOAD,2022-09-29 13:13:09,15.08826402,0.0001826,53.2201,12.6277,48.9214,311.1935,-0.00027173,-4.609e-05,0.0,0 STARLINK-3966,1 52552U 22051V   22272.55080523 -.00004609  00000-0 -27173-3 0  9996,2 52552  53.2201  12.6277 0001826  48.9214 311.1935 15.08826402 21736,6917.922,95.438,541.05,538.524,0.0
52552.0,STARLINK-3966,PAYLOAD,2022-09-30 03:31:37,15.08850038,0.0002032,53.2189,9.9521,53.0451,307.0727,0.00011639,1.565e-05,0.0,0 STARLINK-3966,1 52552U 22051V   22273.14695703  .00001565  00000-0  11639-3 0  9990,2 52552  53.2189   9.9521 0002032  53.0451 307.0727 15.08850038 21827,6917.85,95.437,541.12,538.309,0.0
52552.0,STARLINK-3966,PAYLOAD,2022-09-30 13:03:56,15.08846559,0.0001793,53.2213,8.1675,44.8671,315.2466,2.3501e-05,8.6e-07,0.0,0 STARLINK-3966,1 52552U 22051V   22273.54439868  .00000086  00000-0  23501-4 0  9991,2 52552  53.2213   8.1675 0001793  44.8671 315.2466 15.08846559 21814,6917.86,95.437,540.966,538.485,0.0
52552.0,STARLINK-3966,PAYLOAD,2022-09-30 16:14:42,15.08838635,0.0001862,53.22,7.5747,46.4513,313.6634,8.5353e-06,-1.52e-06,0.0,0 STARLINK-3966,1 52552U 22051V   22273.67688378 -.00000152  00000-0  85353-5 0  9996,2 52552  53.2200   7.5747 0001862  46.4513 313.6634 15.08838635 21830,6917.885,95.438,541.038,538.461,0.0
52552.0,STARLINK-3966,PAYLOAD,2022-10-01 12:54:43,15.08841899,0.0001911,53.2201,3.7089,40.5086,319.6048,0.00040756,6.205e-05,0.0,0 STARLINK-3966,1 52552U 22051V   22274.53800752  .00006205  00000-0  40756-3 0  9994,2 52552  53.2201   3.7089 0001911  40.5086 319.6048 15.08841899 21968,6917.875,95.437,541.062,538.418,0.0
52552.0,STARLINK-3966,PAYLOAD,2022-10-02 04:48:34,15.08849883,0.0001815,53.2199,0.7362,44.3404,315.7733,0.00012452,1.695e-05,0.0,0 STARLINK-3966,1 52552U 22051V   22275.20040075  .00001695  00000-0  12452-3 0  9993,2 52552  53.2199   0.7362 0001815  44.3404 315.7733 15.08849883 22133,6917.85,95.437,540.971,538.46,0.0
52552.0,STARLINK-3966,PAYLOAD,2022-10-02 12:45:31,15.088340300000002,0.0002029999999999,53.2203,359.2496,37.3389,322.7744,-2.4084e-06,-3.27e-06,0.0,0 STARLINK-3966,1 52552U 22051V   22275.53161114 -.00000327  00000-0 -24084-5 0  9996,2 52552  53.2203 359.2496 0002030  37.3389 322.7744 15.08834030 22119,6917.899,95.438,541.168,538.359,0.0
52552.0,STARLINK-3966,PAYLOAD,2022-10-03 03:03:58,15.08859043,0.000198,53.2199,356.5734,39.9723,320.1415,0.00053365,8.22e-05,0.0,0 STARLINK-3966,1 52552U 22051V   22276.12776278  .00008220  00000-0  53365-3 0  9995,2 52552  53.2199 356.5734 0001980  39.9723 320.1415 15.08859043 22276,6917.821999999999,95.436,541.057,538.317,0.0
52552.0,STARLINK-3966,PAYLOAD,2022-10-03 12:36:17,15.08878761,0.0002056,53.2198,354.7896,38.8641,321.2499,0.0016795999999999,0.00026573,0.0,0 STARLINK-3966,1 52552U 22051V   22276.52519819  .00026573  00000-0  16796-2 0  9992,2 52552  53.2198 354.7896 0002056  38.8641 321.2499 15.08878761 22267,6917.762,95.435,541.049,538.205,0.0
52552.0,STARLINK-3966,PAYLOAD,2022-10-03 14:11:40,15.08882318,0.0002070999999999,53.2199,354.4924,38.5407,321.5733,0.0017044,0.00026973,0.0,0 STARLINK-3966,1 52552U 22051V   22276.59143649  .00026973  00000-0  17044-2 0  9994,2 52552  53.2199 354.4924 0002071  38.5407 321.5733 15.08882318 22279,6917.751,95.435,541.049,538.183,0.0
52552.0,STARLINK-3966,PAYLOAD,2022-10-04 01:19:21,15.08880456,0.000192,53.2197,352.4103,39.1448,320.9683,0.00090909,0.00014226,0.0,0 STARLINK-3966,1 52552U 22051V   22277.05510743  .00014226  00000-0  90909-3 0  9999,2 52552  53.2197 352.4103 0001920  39.1448 320.9683 15.08880456 22412,6917.757,95.435,540.95,538.294,0.0
52552.0,STARLINK-3966,PAYLOAD,2022-10-04 12:27:02,15.08858059,0.0001846,53.2198,350.3274,40.9256,319.1875,1.2145e-05,-9.5e-07,0.0,0 STARLINK-3966,1 52552U 22051V   22277.51878398 -.00000095  00000-0  12145-4 0  9990,2 52552  53.2198 350.3274 0001846  40.9256 319.1875 15.08858059 22410,6917.825,95.436,540.967,538.413,0.0
52552.0,STARLINK-3966,PAYLOAD,2022-10-04 23:34:45,15.08846427,0.0002089999999999,53.2196,348.2475,39.5923,320.5221,-0.00017128,-3.014e-05,0.0,0 STARLINK-3966,1 52552U 22051V   22277.98246621 -.00003014  00000-0 -17128-3 0  9999,2 52552  53.2196 348.2475 0002090  39.5923 320.5221 15.08846427 22556,6917.861,95.437,541.172,538.28,0.0
52552.0,STARLINK-3966,PAYLOAD,2022-10-05 10:42:27,15.08839343,0.0002168,53.2199,346.1661,39.1925,320.9224,-0.00019444,-3.382e-05,0.0,0 STARLINK-3966,1 52552U 22051V   22278.44615153 -.00003382  00000-0 -19444-3 0  9992,2 52552  53.2199 346.1661 0002168  39.1925 320.9224 15.08839343 22553,6917.882,95.438,541.247,538.248,0.0
52552.0,STARLINK-3966,PAYLOAD,2022-10-06 10:33:15,15.08829902,0.0002101,53.2201,341.7056,38.418,321.6962,-0.00012204,-2.229e-05,0.0,0 STARLINK-3966,1 52552U 22051V   22279.43976530 -.00002229  00000-0 -12204-3 0  9997,2 52552  53.2201 341.7056 0002101  38.4180 321.6962 15.08829902 22702,6917.911,95.438,541.23,538.323,0.0
52552.0,STARLINK-3966,PAYLOAD,2022-10-06 23:16:19,15.08839909,0.0001864,53.2205,339.327,42.1866,317.9269,5.5335e-05,5.93e-06,0.0,0 STARLINK-3966,1 52552U 22051V   22279.96967451  .00000593  00000-0  55335-4 0  9990,2 52552  53.2205 339.3270 0001864  42.1866 317.9269 15.08839909 22857,6917.880999999999,95.438,541.035,538.456,0.0
52552.0,STARLINK-3966,PAYLOAD,2022-10-07 10:24:01,15.08844229,0.0002149,53.2198,337.2453,42.0855,318.0302,0.00016795,2.386e-05,0.0,0 STARLINK-3966,1 52552U 22051V   22280.43335001  .00002386  00000-0  16795-3 0  9992,2 52552  53.2198 337.2453 0002149  42.0855 318.0302 15.08844229 22853,6917.8669999999975,95.437,541.219,538.246,0.0
52552.0,STARLINK-3966,PAYLOAD,2022-10-08 02:17:53,15.08832091,0.0002093,53.2201,334.272,37.0304,323.0832,8.6034e-05,1.081e-05,0.0,0 STARLINK-3966,1 52552U 22051V   22281.09575968  .00001081  00000-0  86034-4 0  9998,2 52552  53.2201 334.2720 0002093  37.0304 323.0832 15.08832091 23021,6917.905,95.438,541.217,538.322,0.0
